ONEWEB-0012             
1 44057U 19010A   26131.01467081 -.00000035  00000+0 -12643-3 0  9999
2 44057  87.9100 236.1654 0002406  99.4629 260.6774 13.16595269346670
ONEWEB-0010             
1 44058U 19010B   26131.03999979  .00000024  00000+0  28965-4 0  9999
2 44058  87.9099 236.1564 0001693  92.6515 267.4810 13.16595608346723
ONEWEB-0008             
1 44059U 19010C   26131.21732867  .00000109  00000+0  25176-3 0  9995
2 44059  87.9099 236.1173 0001934 109.5162 250.6178 13.16594436346868
ONEWEB-0007             
1 44060U 19010D   26131.07095272  .00000083  00000+0  18538-3 0  9998
2 44060  87.8972 266.6206 0001954  89.4051 270.7304 13.15549593346495
ONEWEB-0006             
1 44061U 19010E   26131.07491675  .00000053  00000+0  10733-3 0  9992
2 44061  87.8984 266.5800 0001753  93.1371 266.9960 13.15549334346546
ONEWEB-0011             
1 44062U 19010F   26131.11928825  .00000089  00000+0  20174-3 0  9999
2 44062  87.8983 266.5803 0001643 100.9721 259.1594 13.15548153346548
ONEWEB-0013             
1 45131U 20008A   26131.18716653  .00000508  00000+0  14385-2 0  9999
2 45131  87.8520  60.2852 0002884  87.3380 272.8077 13.09449728301228
ONEWEB-0017             
1 45132U 20008B   26131.19541509  .00000456  00000+0  12709-2 0  9997
2 45132  87.8859  43.6306 0001746  72.4684 287.6634 13.10375321303102
ONEWEB-0020             
1 45133U 20008C   26131.16551194 -.00000641  00000+0 -18726-2 0  9999
2 45133  87.8865  43.6326 0001880  78.6143 281.5196 13.10371927303495
ONEWEB-0021             
1 45134U 20008D   26131.18046148 -.00000259  00000+0 -77925-3 0  9992
2 45134  87.8856  43.6485 0001950  76.5419 283.5925 13.10375479303806
ONEWEB-0023             
1 45136U 20008F   26131.19126251  .00000271  00000+0  73923-3 0  9995
2 45136  87.8863  43.6261 0001954  81.9156 278.2193 13.10375951303230
ONEWEB-0024             
1 45137U 20008G   26131.16399723  .00003133  00000+0  89396-2 0  9999
2 45137  87.8863  43.6219 0001714  77.8445 282.2874 13.10352984303392
ONEWEB-0025             
1 45138U 20008H   26131.16372566 -.00000589  00000+0 -17233-2 0  9991
2 45138  87.8867  43.6108 0001481  91.8803 268.2493 13.10373061303726
ONEWEB-0026             
1 45139U 20008J   26131.15461993  .00000446  00000+0  12217-2 0  9991
2 45139  87.8927  28.4331 0001655  77.6870 282.4443 13.11420777306254
ONEWEB-0028             
1 45140U 20008K   26131.19433329 -.00000431  00000+0 -12632-2 0  9996
2 45140  87.8918  28.4296 0002353  84.6501 275.4894 13.10849428303774
ONEWEB-0032             
1 45141U 20008L   26131.16667824  .00045254  00000+0  12900+0 0  9998
2 45141  87.8862  43.6367 0002343  85.0189 131.1325 13.10355770  4875
