[{"OBJECT_NAME":"ONEWEB-0012","OBJECT_ID":"2019-010A","EPOCH":"2026-05-11T00:21:07.557984","MEAN_MOTION":13.16595269,"ECCENTRICITY":0.0002406,"INCLINATION":87.91,"RA_OF_ASC_NODE":236.1654,"ARG_OF_PERICENTER":99.4629,"MEAN_ANOMALY":260.6774,"EPHEMERIS_TYPE":0,"CLASSIFICATION_TYPE":"U","NORAD_CAT_ID":44057,"ELEMENT_SET_NO":999,"REV_AT_EPOCH":34667,"BSTAR":-0.00012643,"MEAN_MOTION_DOT":-3.5e-07,"MEAN_MOTION_DDOT":0.0},{"OBJECT_NAME":"ONEWEB-0010","OBJECT_ID":"2019-010B","EPOCH":"2026-05-11T00:57:35.981856","MEAN_MOTION":13.16595608,"ECCENTRICITY":0.0001693,"INCLINATION":87.9099,"RA_OF_ASC_NODE":236.1564,"ARG_OF_PERICENTER":92.6515,"MEAN_ANOMALY":267.481,"EPHEMERIS_TYPE":0,"CLASSIFICATION_TYPE":"U","NORAD_CAT_ID":44058,"ELEMENT_SET_NO":999,"REV_AT_EPOCH":34672,"BSTAR":2.8965000000000005e-05,"MEAN_MOTION_DOT":2.4e-07,"MEAN_MOTION_DDOT":0.0},{"OBJECT_NAME":"ONEWEB-0008","OBJECT_ID":"2019-010C","EPOCH":"2026-05-11T05:12:57.197088","MEAN_MOTION":13.16594436,"ECCENTRICITY":0.0001934,"INCLINATION":87.9099,"RA_OF_ASC_NODE":236.1173,"ARG_OF_PERICENTER":109.5162,"MEAN_ANOMALY":250.6178,"EPHEMERIS_TYPE":0,"CLASSIFICATION_TYPE":"U","NORAD_CAT_ID":44059,"ELEMENT_SET_NO":999,"REV_AT_EPOCH":34686,"BSTAR":0.00025176,"MEAN_MOTION_DOT":1.09e-06,"MEAN_MOTION_DDOT":0.0},{"OBJECT_NAME":"ONEWEB-0007","OBJECT_ID":"2019-010D","EPOCH":"2026-05-11T01:42:10.315008","MEAN_MOTION":13.15549593,"ECCENTRICITY":0.0001954,"INCLINATION":87.8972,"RA_OF_ASC_NODE":266.6206,"ARG_OF_PERICENTER":89.4051,"MEAN_ANOMALY":270.7304,"EPHEMERIS_TYPE":0,"CLASSIFICATION_TYPE":"U","NORAD_CAT_ID":44060,"ELEMENT_SET_NO":999,"REV_AT_EPOCH":34649,"BSTAR":0.00018538,"MEAN_MOTION_DOT":8.3e-07,"MEAN_MOTION_DDOT":0.0},{"OBJECT_NAME":"ONEWEB-0006","OBJECT_ID":"2019-010E","EPOCH":"2026-05-11T01:47:52.807200","MEAN_MOTION":13.15549334,"ECCENTRICITY":0.0001753,"INCLINATION":87.8984,"RA_OF_ASC_NODE":266.58,"ARG_OF_PERICENTER":93.1371,"MEAN_ANOMALY":266.996,"EPHEMERIS_TYPE":0,"CLASSIFICATION_TYPE":"U","NORAD_CAT_ID":44061,"ELEMENT_SET_NO":999,"REV_AT_EPOCH":34654,"BSTAR":0.00010732999999999999,"MEAN_MOTION_DOT":5.3e-07,"MEAN_MOTION_DDOT":0.0},{"OBJECT_NAME":"ONEWEB-0011","OBJECT_ID":"2019-010F","EPOCH":"2026-05-11T02:51:46.504800","MEAN_MOTION":13.15548153,"ECCENTRICITY":0.0001643,"INCLINATION":87.8983,"RA_OF_ASC_NODE":266.5803,"ARG_OF_PERICENTER":100.9721,"MEAN_ANOMALY":259.1594,"EPHEMERIS_TYPE":0,"CLASSIFICATION_TYPE":"U","NORAD_CAT_ID":44062,"ELEMENT_SET_NO":999,"REV_AT_EPOCH":34654,"BSTAR":0.00020174,"MEAN_MOTION_DOT":8.9e-07,"MEAN_MOTION_DDOT":0.0},{"OBJECT_NAME":"ONEWEB-0013","OBJECT_ID":"2020-008A","EPOCH":"2026-05-11T04:29:31.188192","MEAN_MOTION":13.09449728,"ECCENTRICITY":0.0002884,"INCLINATION":87.852,"RA_OF_ASC_NODE":60.2852,"ARG_OF_PERICENTER":87.338,"MEAN_ANOMALY":272.8077,"EPHEMERIS_TYPE":0,"CLASSIFICATION_TYPE":"U","NORAD_CAT_ID":45131,"ELEMENT_SET_NO":999,"REV_AT_EPOCH":30122,"BSTAR":0.0014385000000000001,"MEAN_MOTION_DOT":5.08e-06,"MEAN_MOTION_DDOT":0.0},{"OBJECT_NAME":"ONEWEB-0017","OBJECT_ID":"2020-008B","EPOCH":"2026-05-11T04:41:23.863776","MEAN_MOTION":13.10375321,"ECCENTRICITY":0.0001746,"INCLINATION":87.8859,"RA_OF_ASC_NODE":43.6306,"ARG_OF_PERICENTER":72.4684,"MEAN_ANOMALY":287.6634,"EPHEMERIS_TYPE":0,"CLASSIFICATION_TYPE":"U","NORAD_CAT_ID":45132,"ELEMENT_SET_NO":999,"REV_AT_EPOCH":30310,"BSTAR":0.0012709000000000002,"MEAN_MOTION_DOT":4.56e-06,"MEAN_MOTION_DDOT":0.0},{"OBJECT_NAME":"ONEWEB-0020","OBJECT_ID":"2020-008C","EPOCH":"2026-05-11T03:58:20.231616","MEAN_MOTION":13.10371927,"ECCENTRICITY":0.000188,"INCLINATION":87.8865,"RA_OF_ASC_NODE":43.6326,"ARG_OF_PERICENTER":78.6143,"MEAN_ANOMALY":281.5196,"EPHEMERIS_TYPE":0,"CLASSIFICATION_TYPE":"U","NORAD_CAT_ID":45133,"ELEMENT_SET_NO":999,"REV_AT_EPOCH":30349,"BSTAR":-0.0018726,"MEAN_MOTION_DOT":-6.41e-06,"MEAN_MOTION_DDOT":0.0},{"OBJECT_NAME":"ONEWEB-0021","OBJECT_ID":"2020-008D","EPOCH":"2026-05-11T04:19:51.871872","MEAN_MOTION":13.10375479,"ECCENTRICITY":0.000195,"INCLINATION":87.8856,"RA_OF_ASC_NODE":43.6485,"ARG_OF_PERICENTER":76.5419,"MEAN_ANOMALY":283.5925,"EPHEMERIS_TYPE":0,"CLASSIFICATION_TYPE":"U","NORAD_CAT_ID":45134,"ELEMENT_SET_NO":999,"REV_AT_EPOCH":30380,"BSTAR":-0.00077925,"MEAN_MOTION_DOT":-2.59e-06,"MEAN_MOTION_DDOT":0.0},{"OBJECT_NAME":"ONEWEB-0023","OBJECT_ID":"2020-008F","EPOCH":"2026-05-11T04:35:25.080864","MEAN_MOTION":13.10375951,"ECCENTRICITY":0.0001954,"INCLINATION":87.8863,"RA_OF_ASC_NODE":43.6261,"ARG_OF_PERICENTER":81.9156,"MEAN_ANOMALY":278.2193,"EPHEMERIS_TYPE":0,"CLASSIFICATION_TYPE":"U","NORAD_CAT_ID":45136,"ELEMENT_SET_NO":999,"REV_AT_EPOCH":30323,"BSTAR":0.0007392300000000001,"MEAN_MOTION_DOT":2.71e-06,"MEAN_MOTION_DDOT":0.0},{"OBJECT_NAME":"ONEWEB-0024","OBJECT_ID":"2020-008G","EPOCH":"2026-05-11T03:56:09.360672","MEAN_MOTION":13.10352984,"ECCENTRICITY":0.0001714,"INCLINATION":87.8863,"RA_OF_ASC_NODE":43.6219,"ARG_OF_PERICENTER":77.8445,"MEAN_ANOMALY":282.2874,"EPHEMERIS_TYPE":0,"CLASSIFICATION_TYPE":"U","NORAD_CAT_ID":45137,"ELEMENT_SET_NO":999,"REV_AT_EPOCH":30339,"BSTAR":0.0089396,"MEAN_MOTION_DOT":3.133e-05,"MEAN_MOTION_DDOT":0.0},{"OBJECT_NAME":"ONEWEB-0025","OBJECT_ID":"2020-008H","EPOCH":"2026-05-11T03:55:45.897024","MEAN_MOTION":13.10373061,"ECCENTRICITY":0.0001481,"INCLINATION":87.8867,"RA_OF_ASC_NODE":43.6108,"ARG_OF_PERICENTER":91.8803,"MEAN_ANOMALY":268.2493,"EPHEMERIS_TYPE":0,"CLASSIFICATION_TYPE":"U","NORAD_CAT_ID":45138,"ELEMENT_SET_NO":999,"REV_AT_EPOCH":30372,"BSTAR":-0.0017233,"MEAN_MOTION_DOT":-5.89e-06,"MEAN_MOTION_DDOT":0.0},{"OBJECT_NAME":"ONEWEB-0026","OBJECT_ID":"2020-008J","EPOCH":"2026-05-11T03:42:39.161952","MEAN_MOTION":13.11420777,"ECCENTRICITY":0.0001655,"INCLINATION":87.8927,"RA_OF_ASC_NODE":28.4331,"ARG_OF_PERICENTER":77.687,"MEAN_ANOMALY":282.4443,"EPHEMERIS_TYPE":0,"CLASSIFICATION_TYPE":"U","NORAD_CAT_ID":45139,"ELEMENT_SET_NO":999,"REV_AT_EPOCH":30625,"BSTAR":0.0012217,"MEAN_MOTION_DOT":4.46e-06,"MEAN_MOTION_DDOT":0.0},{"OBJECT_NAME":"ONEWEB-0028","OBJECT_ID":"2020-008K","EPOCH":"2026-05-11T04:39:50.396256","MEAN_MOTION":13.10849428,"ECCENTRICITY":0.0002353,"INCLINATION":87.8918,"RA_OF_ASC_NODE":28.4296,"ARG_OF_PERICENTER":84.6501,"MEAN_ANOMALY":275.4894,"EPHEMERIS_TYPE":0,"CLASSIFICATION_TYPE":"U","NORAD_CAT_ID":45140,"ELEMENT_SET_NO":999,"REV_AT_EPOCH":30377,"BSTAR":-0.0012632,"MEAN_MOTION_DOT":-4.31e-06,"MEAN_MOTION_DDOT":0.0},{"OBJECT_NAME":"ONEWEB-0032","OBJECT_ID":"2020-008L","EPOCH":"2026-05-11T04:00:00.999936","MEAN_MOTION":13.1035577,"ECCENTRICITY":0.0002343,"INCLINATION":87.8862,"RA_OF_ASC_NODE":43.6367,"ARG_OF_PERICENTER":85.0189,"MEAN_ANOMALY":131.1325,"EPHEMERIS_TYPE":0,"CLASSIFICATION_TYPE":"U","NORAD_CAT_ID":45141,"ELEMENT_SET_NO":999,"REV_AT_EPOCH":487,"BSTAR":0.129,"MEAN_MOTION_DOT":0.00045254,"MEAN_MOTION_DDOT":0.0}]